start=new Date('2023-01-19T00:00:00.000Z').valueOf();
sats=[{"MEAN_MOTION_DOT":"0.00028138","EPHEMERIS_TYPE":"0","RA_OF_ASC_NODE":"346.0126","FILE":"3753951","ARG_OF_PERICENTER":"88.8947","MEAN_MOTION_DDOT":"0.0000000000000","SITE":"AFWTR","MEAN_ANOMALY":"271.2261","PERIOD":"95.437","OBJECT_ID":"2021-125BA","DECAY_DATE":null,"REF_FRAME":"TEME","MEAN_MOTION":"15.08845501","TLE_LINE1":"1 50204U 21125BA  23018.18001087  .00028138  00000-0  17787-2 0  9995","BSTAR":"0.00177870000000","CENTER_NAME":"EARTH","OBJECT_TYPE":"PAYLOAD","PERIAPSIS":"538.425","APOAPSIS":"541.033","ELEMENT_SET_NO":"999","TIME_SYSTEM":"UTC","INCLINATION":"53.2151","COUNTRY_CODE":"US","REV_AT_EPOCH":"6370","RCS_SIZE":"LARGE","GP_ID":"223422134","CLASSIFICATION_TYPE":"U","TLE_LINE2":"2 50204  53.2151 346.0126 0001885  88.8947 271.2261 15.08845501 63702","MEAN_ELEMENT_THEORY":"SGP4","ECCENTRICITY":"0.00018850","OBJECT_NAME":"STARLINK-3254","NORAD_CAT_ID":"50204","SEMIMAJOR_AXIS":"6917.864","EPOCH":"2023-01-18T04:19:12.939168","LAUNCH_DATE":"2021-12-18"},{"CENTER_NAME":"EARTH","OBJECT_TYPE":"PAYLOAD","PERIAPSIS":"538.757","BSTAR":"0.00127530000000","APOAPSIS":"540.623","INCLINATION":"53.2168","TIME_SYSTEM":"UTC","ELEMENT_SET_NO":"999","CLASSIFICATION_TYPE":"U","GP_ID":"223426667","RCS_SIZE":"LARGE","REV_AT_EPOCH":"6365","COUNTRY_CODE":"US","NORAD_CAT_ID":"50205","OBJECT_NAME":"STARLINK-3260","ECCENTRICITY":"0.00013490","MEAN_ELEMENT_THEORY":"SGP4","TLE_LINE2":"2 50205  53.2168 314.4923 0001349  99.8394 260.2750 15.08858140 63656","SEMIMAJOR_AXIS":"6917.825","EPOCH":"2023-01-18T12:26:47.965344","LAUNCH_DATE":"2021-12-18","MEAN_MOTION_DOT":"0.00020077","EPHEMERIS_TYPE":"0","RA_OF_ASC_NODE":"314.4923","ARG_OF_PERICENTER":"99.8394","FILE":"3753981","MEAN_MOTION_DDOT":"0.0000000000000","MEAN_ANOMALY":"260.2750","SITE":"AFWTR","PERIOD":"95.436","OBJECT_ID":"2021-125BB","TLE_LINE1":"1 50205U 21125BB  23018.51861071  .00020077  00000-0  12753-2 0  9992","MEAN_MOTION":"15.08858140","DECAY_DATE":null,"REF_FRAME":"TEME"},{"PERIOD":"95.435","SITE":"AFWTR","MEAN_ANOMALY":"265.5935","MEAN_MOTION":"15.08874233","DECAY_DATE":null,"REF_FRAME":"TEME","TLE_LINE1":"1 50206U 21125BC  23018.31617044  .00022854  00000-0  14480-2 0  9994","OBJECT_ID":"2021-125BC","RA_OF_ASC_NODE":"345.4051","EPHEMERIS_TYPE":"0","MEAN_MOTION_DOT":"0.00022854","MEAN_MOTION_DDOT":"0.0000000000000","ARG_OF_PERICENTER":"94.5257","FILE":"3753981","ECCENTRICITY":"0.00017560","MEAN_ELEMENT_THEORY":"SGP4","TLE_LINE2":"2 50206  53.2135 345.4051 0001756  94.5257 265.5935 15.08874233 61594","OBJECT_NAME":"STARLINK-3258","NORAD_CAT_ID":"50206","COUNTRY_CODE":"US","GP_ID":"223426665","RCS_SIZE":"LARGE","CLASSIFICATION_TYPE":"U","REV_AT_EPOCH":"6159","LAUNCH_DATE":"2021-12-18","SEMIMAJOR_AXIS":"6917.776","EPOCH":"2023-01-18T07:35:17.126016","APOAPSIS":"540.856","OBJECT_TYPE":"PAYLOAD","PERIAPSIS":"538.426","CENTER_NAME":"EARTH","BSTAR":"0.00144800000000","TIME_SYSTEM":"UTC","ELEMENT_SET_NO":"999","INCLINATION":"53.2135"},{"PERIOD":"95.437","SITE":"AFWTR","MEAN_ANOMALY":"273.1978","DECAY_DATE":null,"REF_FRAME":"TEME","MEAN_MOTION":"15.08844715","TLE_LINE1":"1 50207U 21125BD  23018.18737054  .00009814  00000-0  63378-3 0  9996","OBJECT_ID":"2021-125BD","RA_OF_ASC_NODE":"345.9730","EPHEMERIS_TYPE":"0","MEAN_MOTION_DOT":"0.00009814","MEAN_MOTION_DDOT":"0.0000000000000","FILE":"3753981","ARG_OF_PERICENTER":"86.9238","TLE_LINE2":"2 50207  53.2160 345.9730 0001957  86.9238 273.1978 15.08844715 61649","MEAN_ELEMENT_THEORY":"SGP4","ECCENTRICITY":"0.00019570","NORAD_CAT_ID":"50207","OBJECT_NAME":"STARLINK-3262","COUNTRY_CODE":"US","REV_AT_EPOCH":"6164","RCS_SIZE":"LARGE","GP_ID":"223426662","CLASSIFICATION_TYPE":"U","LAUNCH_DATE":"2021-12-18","EPOCH":"2023-01-18T04:29:48.814656","SEMIMAJOR_AXIS":"6917.866","APOAPSIS":"541.085","BSTAR":"0.00063378000000","OBJECT_TYPE":"PAYLOAD","CENTER_NAME":"EARTH","PERIAPSIS":"538.377","ELEMENT_SET_NO":"999","TIME_SYSTEM":"UTC","INCLINATION":"53.2160"},{"OBJECT_ID":"2022-001A","MEAN_MOTION":"15.08861952","DECAY_DATE":null,"REF_FRAME":"TEME","TLE_LINE1":"1 50803U 22001A   23018.90036571  .00021424  00000-0  13593-2 0  9992","SITE":"AFETR","MEAN_ANOMALY":"269.6127","PERIOD":"95.436","ARG_OF_PERICENTER":"90.5030","FILE":"3754254","MEAN_MOTION_DDOT":"0.0000000000000","MEAN_MOTION_DOT":"0.00021424","RA_OF_ASC_NODE":"272.7777","EPHEMERIS_TYPE":"0","SEMIMAJOR_AXIS":"6917.813","EPOCH":"2023-01-18T21:36:31.597344","LAUNCH_DATE":"2022-01-06","COUNTRY_CODE":"US","RCS_SIZE":"LARGE","GP_ID":"223455576","CLASSIFICATION_TYPE":"U","REV_AT_EPOCH":"5743","ECCENTRICITY":"0.00014360","TLE_LINE2":"2 50803  53.2145 272.7777 0001436  90.5030 269.6127 15.08861952 57435","MEAN_ELEMENT_THEORY":"SGP4","OBJECT_NAME":"STARLINK-3321","NORAD_CAT_ID":"50803","TIME_SYSTEM":"UTC","ELEMENT_SET_NO":"999","INCLINATION":"53.2145","OBJECT_TYPE":"PAYLOAD","CENTER_NAME":"EARTH","PERIAPSIS":"538.685","BSTAR":"0.00135930000000","APOAPSIS":"540.672"},{"BSTAR":"0.00075948000000","PERIAPSIS":"538.664","OBJECT_TYPE":"PAYLOAD","CENTER_NAME":"EARTH","APOAPSIS":"540.690","INCLINATION":"53.2129","ELEMENT_SET_NO":"999","TIME_SYSTEM":"UTC","REV_AT_EPOCH":"5757","GP_ID":"223455826","CLASSIFICATION_TYPE":"U","RCS_SIZE":"LARGE","COUNTRY_CODE":"US","OBJECT_NAME":"STARLINK-3323","NORAD_CAT_ID":"50804","TLE_LINE2":"2 50804  53.2129 262.6283 0001464  84.1108 276.0051 15.08862377 57579","MEAN_ELEMENT_THEORY":"SGP4","ECCENTRICITY":"0.00014640","SEMIMAJOR_AXIS":"6917.812","EPOCH":"2023-01-18T22:25:32.825280","LAUNCH_DATE":"2022-01-06","MEAN_MOTION_DOT":"0.00011827","RA_OF_ASC_NODE":"262.6283","EPHEMERIS_TYPE":"0","FILE":"3754254","ARG_OF_PERICENTER":"84.1108","MEAN_MOTION_DDOT":"0.0000000000000","MEAN_ANOMALY":"276.0051","SITE":"AFETR","PERIOD":"95.436","OBJECT_ID":"2022-001B","TLE_LINE1":"1 50804U 22001B   23018.93440770  .00011827  00000-0  75948-3 0  9995","DECAY_DATE":null,"REF_FRAME":"TEME","MEAN_MOTION":"15.08862377"},{"ELEMENT_SET_NO":"999","TIME_SYSTEM":"UTC","INCLINATION":"53.2123","APOAPSIS":"540.639","BSTAR":"0.00056918000000","CENTER_NAME":"EARTH","OBJECT_TYPE":"PAYLOAD","PERIAPSIS":"538.774","LAUNCH_DATE":"2022-01-06","SEMIMAJOR_AXIS":"6917.841","EPOCH":"2023-01-18T22:20:15.131616","TLE_LINE2":"2 50805  53.2123 262.6391 0001348  62.1127 298.0002 15.08852772 57570","MEAN_ELEMENT_THEORY":"SGP4","ECCENTRICITY":"0.00013480","NORAD_CAT_ID":"50805","OBJECT_NAME":"STARLINK-3333","COUNTRY_CODE":"US","REV_AT_EPOCH":"5757","CLASSIFICATION_TYPE":"U","GP_ID":"223456077","RCS_SIZE":"LARGE","MEAN_MOTION_DDOT":"0.0000000000000","FILE":"3754254","ARG_OF_PERICENTER":"62.1127","EPHEMERIS_TYPE":"0","RA_OF_ASC_NODE":"262.6391","MEAN_MOTION_DOT":"0.00008785","DECAY_DATE":null,"REF_FRAME":"TEME","MEAN_MOTION":"15.08852772","TLE_LINE1":"1 50805U 22001C   23018.93073069  .00008785  00000-0  56918-3 0  9994","OBJECT_ID":"2022-001C","PERIOD":"95.437","SITE":"AFETR","MEAN_ANOMALY":"298.0002"},{"APOAPSIS":"540.572","BSTAR":"0.00067094000000","PERIAPSIS":"538.804","OBJECT_TYPE":"PAYLOAD","CENTER_NAME":"EARTH","ELEMENT_SET_NO":"999","TIME_SYSTEM":"UTC","INCLINATION":"53.2165","MEAN_ELEMENT_THEORY":"SGP4","TLE_LINE2":"2 50806  53.2165 262.6469 0001278  90.0342 270.0797 15.08858775 57574","ECCENTRICITY":"0.00012780","NORAD_CAT_ID":"50806","OBJECT_NAME":"STARLINK-3335","COUNTRY_CODE":"US","REV_AT_EPOCH":"5757","CLASSIFICATION_TYPE":"U","GP_ID":"223456827","RCS_SIZE":"LARGE","LAUNCH_DATE":"2022-01-06","SEMIMAJOR_AXIS":"6917.823","EPOCH":"2023-01-18T22:14:57.087168","RA_OF_ASC_NODE":"262.6469","EPHEMERIS_TYPE":"0","MEAN_MOTION_DOT":"0.00010412","MEAN_MOTION_DDOT":"0.0000000000000","FILE":"3754254","ARG_OF_PERICENTER":"90.0342","PERIOD":"95.436","SITE":"AFETR","MEAN_ANOMALY":"270.0797","DECAY_DATE":null,"REF_FRAME":"TEME","MEAN_MOTION":"15.08858775","TLE_LINE1":"1 50806U 22001D   23018.92704962  .00010412  00000-0  67094-3 0  9994","OBJECT_ID":"2022-001D"},{"SITE":"AFETR","MEAN_ANOMALY":"273.6478","PERIOD":"95.437","OBJECT_ID":"2022-001E","REF_FRAME":"TEME","DECAY_DATE":null,"MEAN_MOTION":"15.08852063","TLE_LINE1":"1 50807U 22001E   23018.91233235  .00009161  00000-0  59270-3 0  9990","MEAN_MOTION_DOT":"0.00009161","EPHEMERIS_TYPE":"0","RA_OF_ASC_NODE":"262.7194","FILE":"3754254","ARG_OF_PERICENTER":"86.4681","MEAN_MOTION_DDOT":"0.0000000000000","COUNTRY_CODE":"US","REV_AT_EPOCH":"5757","GP_ID":"223455076","RCS_SIZE":"LARGE","CLASSIFICATION_TYPE":"U","MEAN_ELEMENT_THEORY":"SGP4","TLE_LINE2":"2 50807  53.2137 262.7194 0001456  86.4681 273.6478 15.08852063 57572","ECCENTRICITY":"0.00014560","NORAD_CAT_ID":"50807","OBJECT_NAME":"STARLINK-3353","SEMIMAJOR_AXIS":"6917.844","EPOCH":"2023-01-18T21:53:45.515040","LAUNCH_DATE":"2022-01-06","BSTAR":"0.00059270000000","PERIAPSIS":"538.701","OBJECT_TYPE":"PAYLOAD","CENTER_NAME":"EARTH","APOAPSIS":"540.716","ELEMENT_SET_NO":"999","TIME_SYSTEM":"UTC","INCLINATION":"53.2137"},{"ELEMENT_SET_NO":"999","TIME_SYSTEM":"UTC","INCLINATION":"53.2152","BSTAR":"0.00043757000000","CENTER_NAME":"EARTH","OBJECT_TYPE":"PAYLOAD","PERIAPSIS":"538.633","APOAPSIS":"540.797","SEMIMAJOR_AXIS":"6917.850","EPOCH":"2023-01-18T22:04:21.351648","LAUNCH_DATE":"2022-01-06","COUNTRY_CODE":"US","REV_AT_EPOCH":"5757","CLASSIFICATION_TYPE":"U","GP_ID":"223455326","RCS_SIZE":"LARGE","TLE_LINE2":"2 50808  53.2152 262.6864 0001564  83.1743 276.9427 15.08849872 57570","MEAN_ELEMENT_THEORY":"SGP4","ECCENTRICITY":"0.00015640","NORAD_CAT_ID":"50808","OBJECT_NAME":"STARLINK-3355","FILE":"3754254","ARG_OF_PERICENTER":"83.1743","MEAN_MOTION_DDOT":"0.0000000000000","MEAN_MOTION_DOT":"0.00006685","RA_OF_ASC_NODE":"262.6864","EPHEMERIS_TYPE":"0","OBJECT_ID":"2022-001F","REF_FRAME":"TEME","DECAY_DATE":null,"MEAN_MOTION":"15.08849872","TLE_LINE1":"1 50808U 22001F   23018.91969157  .00006685  00000-0  43757-3 0  9991","SITE":"AFETR","MEAN_ANOMALY":"276.9427","PERIOD":"95.437"}];
